CCSDS_OMM_VERS = 2.0
CREATION_DATE  = 
ORIGINATOR     = 

OBJECT_NAME    = STARLINK-36621
OBJECT_ID      = 2026-016A
CENTER_NAME    = EARTH
REF_FRAME      = TEME
TIME_SYSTEM    = UTC
MEAN_ELEMENT_THEORY = SGP/SGP4

EPOCH          = 2026-02-23T10:23:29.467680
MEAN_MOTION    = 15.75270591
ECCENTRICITY   = .00026631
INCLINATION    = 97.2816
RA_OF_ASC_NODE = 114.1331
ARG_OF_PERICENTER = 104.2289
MEAN_ANOMALY   = 255.9272

EPHEMERIS_TYPE = 0
CLASSIFICATION_TYPE = U
NORAD_CAT_ID   = 67561
ELEMENT_SET_NO = 999
REV_AT_EPOCH   = 455
BSTAR          = .2815881E-2
MEAN_MOTION_DOT = .444008E-2
MEAN_MOTION_DDOT = 0

CCSDS_OMM_VERS = 2.0
CREATION_DATE  = 
ORIGINATOR     = 

OBJECT_NAME    = STARLINK-36398
OBJECT_ID      = 2026-016B
CENTER_NAME    = EARTH
REF_FRAME      = TEME
TIME_SYSTEM    = UTC
MEAN_ELEMENT_THEORY = SGP/SGP4

EPOCH          = 2026-02-23T02:56:44.951136
MEAN_MOTION    = 15.75234110
ECCENTRICITY   = .0001425
INCLINATION    = 97.2838
RA_OF_ASC_NODE = 113.7887
ARG_OF_PERICENTER = 11.6206
MEAN_ANOMALY   = 348.5092

EPHEMERIS_TYPE = 0
CLASSIFICATION_TYPE = U
NORAD_CAT_ID   = 67562
ELEMENT_SET_NO = 999
REV_AT_EPOCH   = 450
BSTAR          = .13284E-2
MEAN_MOTION_DOT = .203179E-2
MEAN_MOTION_DDOT = 0

CCSDS_OMM_VERS = 2.0
CREATION_DATE  = 
ORIGINATOR     = 

OBJECT_NAME    = STARLINK-36403
OBJECT_ID      = 2026-016C
CENTER_NAME    = EARTH
REF_FRAME      = TEME
TIME_SYSTEM    = UTC
MEAN_ELEMENT_THEORY = SGP/SGP4

EPOCH          = 2026-02-23T14:00:01.999872
MEAN_MOTION    = 15.75138606
ECCENTRICITY   = .00013972
INCLINATION    = 97.2849
RA_OF_ASC_NODE = 114.3892
ARG_OF_PERICENTER = 107.0294
MEAN_ANOMALY   = 251.2269

EPHEMERIS_TYPE = 0
CLASSIFICATION_TYPE = U
NORAD_CAT_ID   = 67563
ELEMENT_SET_NO = 999
REV_AT_EPOCH   = 588
BSTAR          = .7700797E-3
MEAN_MOTION_DOT = .116047E-2
MEAN_MOTION_DDOT = 0

CCSDS_OMM_VERS = 2.0
CREATION_DATE  = 
ORIGINATOR     = 

OBJECT_NAME    = STARLINK-36593
OBJECT_ID      = 2026-016D
CENTER_NAME    = EARTH
REF_FRAME      = TEME
TIME_SYSTEM    = UTC
MEAN_ELEMENT_THEORY = SGP/SGP4

EPOCH          = 2026-02-23T14:09:08.917920
MEAN_MOTION    = 15.75228816
ECCENTRICITY   = .00018112
INCLINATION    = 97.2841
RA_OF_ASC_NODE = 114.3813
ARG_OF_PERICENTER = 355.1475
MEAN_ANOMALY   = 4.9772

EPHEMERIS_TYPE = 0
CLASSIFICATION_TYPE = U
NORAD_CAT_ID   = 67564
ELEMENT_SET_NO = 999
REV_AT_EPOCH   = 458
BSTAR          = .18826002E-2
MEAN_MOTION_DOT = .290942E-2
MEAN_MOTION_DDOT = 0

CCSDS_OMM_VERS = 2.0
CREATION_DATE  = 
ORIGINATOR     = 

OBJECT_NAME    = STARLINK-35725
OBJECT_ID      = 2026-016E
CENTER_NAME    = EARTH
REF_FRAME      = TEME
TIME_SYSTEM    = UTC
MEAN_ELEMENT_THEORY = SGP/SGP4

EPOCH          = 2026-02-23T14:40:09.305184
MEAN_MOTION    = 15.75368470
ECCENTRICITY   = .00014725
INCLINATION    = 97.2837
RA_OF_ASC_NODE = 114.3508
ARG_OF_PERICENTER = 51.5996
MEAN_ANOMALY   = 308.5401

EPHEMERIS_TYPE = 0
CLASSIFICATION_TYPE = U
NORAD_CAT_ID   = 67565
ELEMENT_SET_NO = 999
REV_AT_EPOCH   = 458
BSTAR          = .32212255E-2
MEAN_MOTION_DOT = .514404E-2
MEAN_MOTION_DDOT = 0

CCSDS_OMM_VERS = 2.0
CREATION_DATE  = 
ORIGINATOR     = 

OBJECT_NAME    = STARLINK-36394
OBJECT_ID      = 2026-016F
CENTER_NAME    = EARTH
REF_FRAME      = TEME
TIME_SYSTEM    = UTC
MEAN_ELEMENT_THEORY = SGP/SGP4

EPOCH          = 2026-02-23T10:08:13.471296
MEAN_MOTION    = 15.75306636
ECCENTRICITY   = .00018298
INCLINATION    = 97.2853
RA_OF_ASC_NODE = 114.1454
ARG_OF_PERICENTER = 112.3194
MEAN_ANOMALY   = 247.8265

EPHEMERIS_TYPE = 0
CLASSIFICATION_TYPE = U
NORAD_CAT_ID   = 67566
ELEMENT_SET_NO = 999
REV_AT_EPOCH   = 455
BSTAR          = .17640954E-2
MEAN_MOTION_DOT = .272956E-2
MEAN_MOTION_DDOT = 0

CCSDS_OMM_VERS = 2.0
CREATION_DATE  = 
ORIGINATOR     = 

OBJECT_NAME    = STARLINK-36352
OBJECT_ID      = 2026-016G
CENTER_NAME    = EARTH
REF_FRAME      = TEME
TIME_SYSTEM    = UTC
MEAN_ELEMENT_THEORY = SGP/SGP4

EPOCH          = 2026-02-23T14:00:01.999872
MEAN_MOTION    = 15.75141263
ECCENTRICITY   = .00006617
INCLINATION    = 97.2851
RA_OF_ASC_NODE = 114.4005
ARG_OF_PERICENTER = 114.8256
MEAN_ANOMALY   = 277.4383

EPHEMERIS_TYPE = 0
CLASSIFICATION_TYPE = U
NORAD_CAT_ID   = 67567
ELEMENT_SET_NO = 999
REV_AT_EPOCH   = 578
BSTAR          = .87654927E-3
MEAN_MOTION_DOT = .132378E-2
MEAN_MOTION_DDOT = 0

CCSDS_OMM_VERS = 2.0
CREATION_DATE  = 
ORIGINATOR     = 

OBJECT_NAME    = STARLINK-36435
OBJECT_ID      = 2026-016H
CENTER_NAME    = EARTH
REF_FRAME      = TEME
TIME_SYSTEM    = UTC
MEAN_ELEMENT_THEORY = SGP/SGP4

EPOCH          = 2026-02-22T14:50:09.880224
MEAN_MOTION    = 15.80747366
ECCENTRICITY   = .0004047
INCLINATION    = 97.2845
RA_OF_ASC_NODE = 113.4031
ARG_OF_PERICENTER = 339.2977
MEAN_ANOMALY   = 20.8126

EPHEMERIS_TYPE = 0
CLASSIFICATION_TYPE = U
NORAD_CAT_ID   = 67568
ELEMENT_SET_NO = 999
REV_AT_EPOCH   = 443
BSTAR          = .2616E-2
MEAN_MOTION_DOT = .531051E-2
MEAN_MOTION_DDOT = 0

CCSDS_OMM_VERS = 2.0
CREATION_DATE  = 
ORIGINATOR     = 

OBJECT_NAME    = STARLINK-36575
OBJECT_ID      = 2026-016J
CENTER_NAME    = EARTH
REF_FRAME      = TEME
TIME_SYSTEM    = UTC
MEAN_ELEMENT_THEORY = SGP/SGP4

EPOCH          = 2026-02-23T02:57:28.941696
MEAN_MOTION    = 15.80910495
ECCENTRICITY   = .0000721
INCLINATION    = 97.2837
RA_OF_ASC_NODE = 113.9440
ARG_OF_PERICENTER = 8.0646
MEAN_ANOMALY   = 352.0634

EPHEMERIS_TYPE = 0
CLASSIFICATION_TYPE = U
NORAD_CAT_ID   = 67569
ELEMENT_SET_NO = 999
REV_AT_EPOCH   = 451
BSTAR          = .11855E-2
MEAN_MOTION_DOT = .234143E-2
MEAN_MOTION_DDOT = 0

CCSDS_OMM_VERS = 2.0
CREATION_DATE  = 
ORIGINATOR     = 

OBJECT_NAME    = STARLINK-36562
OBJECT_ID      = 2026-016K
CENTER_NAME    = EARTH
REF_FRAME      = TEME
TIME_SYSTEM    = UTC
MEAN_ELEMENT_THEORY = SGP/SGP4

EPOCH          = 2026-02-23T14:00:01.999872
MEAN_MOTION    = 15.75108622
ECCENTRICITY   = .00013807
INCLINATION    = 97.2846
RA_OF_ASC_NODE = 114.4074
ARG_OF_PERICENTER = 85.6421
MEAN_ANOMALY   = 316.6214

EPHEMERIS_TYPE = 0
CLASSIFICATION_TYPE = U
NORAD_CAT_ID   = 67570
ELEMENT_SET_NO = 999
REV_AT_EPOCH   = 578
BSTAR          = .13252794E-2
MEAN_MOTION_DOT = .20157E-2
MEAN_MOTION_DDOT = 0

CCSDS_OMM_VERS = 2.0
CREATION_DATE  = 
ORIGINATOR     = 

OBJECT_NAME    = STARLINK-36578
OBJECT_ID      = 2026-016L
CENTER_NAME    = EARTH
REF_FRAME      = TEME
TIME_SYSTEM    = UTC
MEAN_ELEMENT_THEORY = SGP/SGP4

EPOCH          = 2026-02-23T02:33:52.833600
MEAN_MOTION    = 15.75271868
ECCENTRICITY   = .0001286
INCLINATION    = 97.2844
RA_OF_ASC_NODE = 113.8106
ARG_OF_PERICENTER = 112.4426
MEAN_ANOMALY   = 247.6975

EPHEMERIS_TYPE = 0
CLASSIFICATION_TYPE = U
NORAD_CAT_ID   = 67571
ELEMENT_SET_NO = 999
REV_AT_EPOCH   = 450
BSTAR          = .15406E-2
MEAN_MOTION_DOT = .236988E-2
MEAN_MOTION_DDOT = 0

CCSDS_OMM_VERS = 2.0
CREATION_DATE  = 
ORIGINATOR     = 

OBJECT_NAME    = STARLINK-36350
OBJECT_ID      = 2026-016M
CENTER_NAME    = EARTH
REF_FRAME      = TEME
TIME_SYSTEM    = UTC
MEAN_ELEMENT_THEORY = SGP/SGP4

EPOCH          = 2026-02-23T14:34:33.191040
MEAN_MOTION    = 15.75341044
ECCENTRICITY   = .00012958
INCLINATION    = 97.2840
RA_OF_ASC_NODE = 114.3531
ARG_OF_PERICENTER = 306.3934
MEAN_ANOMALY   = 53.7211

EPHEMERIS_TYPE = 0
CLASSIFICATION_TYPE = U
NORAD_CAT_ID   = 67572
ELEMENT_SET_NO = 999
REV_AT_EPOCH   = 458
BSTAR          = .23236064E-2
MEAN_MOTION_DOT = .364015E-2
MEAN_MOTION_DDOT = 0

